TEVEL2-1                
1 63217U 25052H   26066.62076055  .00027602  00000+0  94341-3 0  9994
2 63217  97.3994 322.7487 0004708 109.0603 251.1148 15.30239399 54547
TEVEL2-3                
1 63218U 25052J   26066.61838638  .00027304  00000+0  93233-3 0  9995
2 63218  97.3998 322.7580 0004630 109.4660 250.7081 15.30274192 54548
TEVEL2-2                
1 63219U 25052K   26066.22907211  .00027424  00000+0  93790-3 0  9998
2 63219  97.3996 322.3595 0004619 110.9694 249.2041 15.30222112 54487
TEVEL2-9                
1 63237U 25052AD  26066.60750988  .00025803  00000+0  92903-3 0  9991
2 63237  97.4054 322.3101 0007914 130.8688 229.3238 15.28534571 54491
TEVEL2-7                
1 63238U 25052AE  26066.63152217  .00024907  00000+0  90283-3 0  9999
2 63238  97.4053 322.2870 0007956 129.4899 230.7046 15.28320826 54496
TEVEL2-8                
1 63239U 25052AF  26066.63851468  .00025280  00000+0  91684-3 0  9995
2 63239  97.4059 322.2745 0007953 130.6221 229.5711 15.28299372 54490
HADES-ICM               
1 63492U 25052BN  26066.64053374  .00176956  00000+0  24748-2 0  9990
2 63492  97.3948 327.0138 0008861 115.0711 245.1464 15.56174711 54822
INNOSAT 16 (RS92S7)     
1 64878U 25155C   26066.61576455  .00009970  00000+0  41203-3 0  9997
2 64878  97.4466  34.2280 0010724 172.4034 187.7368 15.24140949 65195
GEOSCAN 6 (RS92S6)      
1 64879U 25155D   26066.61943744  .00017005  00000+0  62559-3 0  9992
2 64879  97.4465  35.0033 0008477 161.0231 199.1326 15.27910165 65240
GEOSCAN 1 (RS92S1)      
1 64880U 25155E   26066.59032485  .00019582  00000+0  71066-3 0  9997
2 64880  97.4464  35.0468 0008356 161.1523 199.0028 15.28328581 65248
239ALFEROV (RS61S)      
1 64881U 25155F   26066.61809993  .00024107  00000+0  83461-3 0  9998
2 64881  97.4469  35.3435 0008155 158.7338 201.4243 15.29829339 65261
GEOSCAN 2 (RS92S2)      
1 64890U 25155Q   26066.60309063  .00018626  00000+0  67007-3 0  9997
2 64890  97.4462  35.1693 0008248 148.0727 212.1014 15.28628017 65258
GEOSCAN 5 (RS92S5)      
1 64891U 25155R   26066.62871073  .00023032  00000+0  78978-3 0  9991
2 64891  97.4462  35.4514 0006752 161.0794 199.0699 15.30160986 65274
GEOSCAN 4 (RS92S4)      
1 64892U 25155S   26066.62123277  .00024053  00000+0  82192-3 0  9995
2 64892  97.4464  35.4681 0006770 161.5608 198.5879 15.30265710 65276
GEOSCAN 3 (RS92S3)      
1 64893U 25155T   26066.60095556  .00029527  00000+0  96792-3 0  9994
2 64893  97.4456  35.6345 0006428 161.2030 198.9450 15.31569197 65280
INNOSAT 3 (RS92S0)      
1 64894U 25155U   26066.64063319  .00051170  00000+0  14304-2 0  9998
2 64894  97.4428  36.3089 0006173 152.2749 207.8825 15.36497670 65330
