[{"OBJECT_NAME":"TEVEL2-1","OBJECT_ID":"2025-052H","EPOCH":"2026-03-07T14:53:53.711520","MEAN_MOTION":15.30239399,"ECCENTRICITY":0.00047085,"INCLINATION":97.3994,"RA_OF_ASC_NODE":322.7487,"ARG_OF_PERICENTER":109.0603,"MEAN_ANOMALY":251.1148,"EPHEMERIS_TYPE":0,"CLASSIFICATION_TYPE":"U","NORAD_CAT_ID":63217,"ELEMENT_SET_NO":999,"REV_AT_EPOCH":5454,"BSTAR":0.0009434112,"MEAN_MOTION_DOT":0.00027602,"MEAN_MOTION_DDOT":0},{"OBJECT_NAME":"TEVEL2-3","OBJECT_ID":"2025-052J","EPOCH":"2026-03-07T14:50:28.583232","MEAN_MOTION":15.30274192,"ECCENTRICITY":0.00046309,"INCLINATION":97.3998,"RA_OF_ASC_NODE":322.758,"ARG_OF_PERICENTER":109.466,"MEAN_ANOMALY":250.7081,"EPHEMERIS_TYPE":0,"CLASSIFICATION_TYPE":"U","NORAD_CAT_ID":63218,"ELEMENT_SET_NO":999,"REV_AT_EPOCH":5454,"BSTAR":0.00093232911,"MEAN_MOTION_DOT":0.00027304,"MEAN_MOTION_DDOT":0},{"OBJECT_NAME":"TEVEL2-2","OBJECT_ID":"2025-052K","EPOCH":"2026-03-07T05:29:51.830304","MEAN_MOTION":15.30222112,"ECCENTRICITY":0.0004619,"INCLINATION":97.3996,"RA_OF_ASC_NODE":322.3595,"ARG_OF_PERICENTER":110.9694,"MEAN_ANOMALY":249.2041,"EPHEMERIS_TYPE":0,"CLASSIFICATION_TYPE":"U","NORAD_CAT_ID":63219,"ELEMENT_SET_NO":999,"REV_AT_EPOCH":5448,"BSTAR":0.0009379,"MEAN_MOTION_DOT":0.00027424,"MEAN_MOTION_DDOT":0},{"OBJECT_NAME":"TEVEL2-9","OBJECT_ID":"2025-052AD","EPOCH":"2026-03-07T14:34:48.853632","MEAN_MOTION":15.28534571,"ECCENTRICITY":0.00079148,"INCLINATION":97.4054,"RA_OF_ASC_NODE":322.3101,"ARG_OF_PERICENTER":130.8688,"MEAN_ANOMALY":229.3238,"EPHEMERIS_TYPE":0,"CLASSIFICATION_TYPE":"U","NORAD_CAT_ID":63237,"ELEMENT_SET_NO":999,"REV_AT_EPOCH":5449,"BSTAR":0.00092903261,"MEAN_MOTION_DOT":0.00025803,"MEAN_MOTION_DDOT":0},{"OBJECT_NAME":"TEVEL2-7","OBJECT_ID":"2025-052AE","EPOCH":"2026-03-07T15:09:23.515488","MEAN_MOTION":15.28320826,"ECCENTRICITY":0.00079561,"INCLINATION":97.4053,"RA_OF_ASC_NODE":322.287,"ARG_OF_PERICENTER":129.4899,"MEAN_ANOMALY":230.7046,"EPHEMERIS_TYPE":0,"CLASSIFICATION_TYPE":"U","NORAD_CAT_ID":63238,"ELEMENT_SET_NO":999,"REV_AT_EPOCH":5449,"BSTAR":0.00090283108,"MEAN_MOTION_DOT":0.00024907,"MEAN_MOTION_DDOT":0},{"OBJECT_NAME":"TEVEL2-8","OBJECT_ID":"2025-052AF","EPOCH":"2026-03-07T15:19:27.668352","MEAN_MOTION":15.28299372,"ECCENTRICITY":0.00079533,"INCLINATION":97.4059,"RA_OF_ASC_NODE":322.2745,"ARG_OF_PERICENTER":130.6221,"MEAN_ANOMALY":229.5711,"EPHEMERIS_TYPE":0,"CLASSIFICATION_TYPE":"U","NORAD_CAT_ID":63239,"ELEMENT_SET_NO":999,"REV_AT_EPOCH":5449,"BSTAR":0.00091684251,"MEAN_MOTION_DOT":0.0002528,"MEAN_MOTION_DDOT":0},{"OBJECT_NAME":"HADES-ICM","OBJECT_ID":"2025-052BN","EPOCH":"2026-03-07T15:22:22.115136","MEAN_MOTION":15.56174711,"ECCENTRICITY":0.00088615,"INCLINATION":97.3948,"RA_OF_ASC_NODE":327.0138,"ARG_OF_PERICENTER":115.0711,"MEAN_ANOMALY":245.1464,"EPHEMERIS_TYPE":0,"CLASSIFICATION_TYPE":"U","NORAD_CAT_ID":63492,"ELEMENT_SET_NO":999,"REV_AT_EPOCH":5482,"BSTAR":0.0024748379,"MEAN_MOTION_DOT":0.00176956,"MEAN_MOTION_DDOT":0},{"OBJECT_NAME":"INNOSAT 16 (RS92S7)","OBJECT_ID":"2025-155C","EPOCH":"2026-03-07T14:46:42.057120","MEAN_MOTION":15.24140949,"ECCENTRICITY":0.00107245,"INCLINATION":97.4466,"RA_OF_ASC_NODE":34.228,"ARG_OF_PERICENTER":172.4034,"MEAN_ANOMALY":187.7368,"EPHEMERIS_TYPE":0,"CLASSIFICATION_TYPE":"U","NORAD_CAT_ID":64878,"ELEMENT_SET_NO":999,"REV_AT_EPOCH":6519,"BSTAR":0.00041202828,"MEAN_MOTION_DOT":9.97e-5,"MEAN_MOTION_DDOT":0},{"OBJECT_NAME":"GEOSCAN 6 (RS92S6)","OBJECT_ID":"2025-155D","EPOCH":"2026-03-07T14:51:59.394816","MEAN_MOTION":15.27910165,"ECCENTRICITY":0.00084779,"INCLINATION":97.4465,"RA_OF_ASC_NODE":35.0033,"ARG_OF_PERICENTER":161.0231,"MEAN_ANOMALY":199.1326,"EPHEMERIS_TYPE":0,"CLASSIFICATION_TYPE":"U","NORAD_CAT_ID":64879,"ELEMENT_SET_NO":999,"REV_AT_EPOCH":6524,"BSTAR":0.00062558717,"MEAN_MOTION_DOT":0.00017005,"MEAN_MOTION_DDOT":0},{"OBJECT_NAME":"GEOSCAN 1 (RS92S1)","OBJECT_ID":"2025-155E","EPOCH":"2026-03-07T14:10:04.067040","MEAN_MOTION":15.28328581,"ECCENTRICITY":0.00083565,"INCLINATION":97.4464,"RA_OF_ASC_NODE":35.0468,"ARG_OF_PERICENTER":161.1523,"MEAN_ANOMALY":199.0028,"EPHEMERIS_TYPE":0,"CLASSIFICATION_TYPE":"U","NORAD_CAT_ID":64880,"ELEMENT_SET_NO":999,"REV_AT_EPOCH":6524,"BSTAR":0.00071066167,"MEAN_MOTION_DOT":0.00019582,"MEAN_MOTION_DDOT":0},{"OBJECT_NAME":"239ALFEROV (RS61S)","OBJECT_ID":"2025-155F","EPOCH":"2026-03-07T14:50:03.833952","MEAN_MOTION":15.29829339,"ECCENTRICITY":0.00081552,"INCLINATION":97.4469,"RA_OF_ASC_NODE":35.3435,"ARG_OF_PERICENTER":158.7338,"MEAN_ANOMALY":201.4243,"EPHEMERIS_TYPE":0,"CLASSIFICATION_TYPE":"U","NORAD_CAT_ID":64881,"ELEMENT_SET_NO":999,"REV_AT_EPOCH":6526,"BSTAR":0.00083461311,"MEAN_MOTION_DOT":0.00024107,"MEAN_MOTION_DDOT":0},{"OBJECT_NAME":"GEOSCAN 2 (RS92S2)","OBJECT_ID":"2025-155Q","EPOCH":"2026-03-07T14:28:27.030432","MEAN_MOTION":15.28628017,"ECCENTRICITY":0.00082482,"INCLINATION":97.4462,"RA_OF_ASC_NODE":35.1693,"ARG_OF_PERICENTER":148.0727,"MEAN_ANOMALY":212.1014,"EPHEMERIS_TYPE":0,"CLASSIFICATION_TYPE":"U","NORAD_CAT_ID":64890,"ELEMENT_SET_NO":999,"REV_AT_EPOCH":6525,"BSTAR":0.00067007107,"MEAN_MOTION_DOT":0.00018626,"MEAN_MOTION_DDOT":0},{"OBJECT_NAME":"GEOSCAN 5 (RS92S5)","OBJECT_ID":"2025-155R","EPOCH":"2026-03-07T15:05:20.607072","MEAN_MOTION":15.30160986,"ECCENTRICITY":0.00067525,"INCLINATION":97.4462,"RA_OF_ASC_NODE":35.4514,"ARG_OF_PERICENTER":161.0794,"MEAN_ANOMALY":199.0699,"EPHEMERIS_TYPE":0,"CLASSIFICATION_TYPE":"U","NORAD_CAT_ID":64891,"ELEMENT_SET_NO":999,"REV_AT_EPOCH":6527,"BSTAR":0.00078977948,"MEAN_MOTION_DOT":0.00023032,"MEAN_MOTION_DDOT":0},{"OBJECT_NAME":"GEOSCAN 4 (RS92S4)","OBJECT_ID":"2025-155S","EPOCH":"2026-03-07T14:54:34.511328","MEAN_MOTION":15.3026571,"ECCENTRICITY":0.00067702,"INCLINATION":97.4464,"RA_OF_ASC_NODE":35.4681,"ARG_OF_PERICENTER":161.5608,"MEAN_ANOMALY":198.5879,"EPHEMERIS_TYPE":0,"CLASSIFICATION_TYPE":"U","NORAD_CAT_ID":64892,"ELEMENT_SET_NO":999,"REV_AT_EPOCH":6527,"BSTAR":0.00082192367,"MEAN_MOTION_DOT":0.00024053,"MEAN_MOTION_DDOT":0},{"OBJECT_NAME":"GEOSCAN 3 (RS92S3)","OBJECT_ID":"2025-155T","EPOCH":"2026-03-07T14:25:22.560384","MEAN_MOTION":15.31569197,"ECCENTRICITY":0.00064287,"INCLINATION":97.4456,"RA_OF_ASC_NODE":35.6345,"ARG_OF_PERICENTER":161.203,"MEAN_ANOMALY":198.945,"EPHEMERIS_TYPE":0,"CLASSIFICATION_TYPE":"U","NORAD_CAT_ID":64893,"ELEMENT_SET_NO":999,"REV_AT_EPOCH":6528,"BSTAR":0.00096791981,"MEAN_MOTION_DOT":0.00029527,"MEAN_MOTION_DDOT":0},{"OBJECT_NAME":"INNOSAT 3 (RS92S0)","OBJECT_ID":"2025-155U","EPOCH":"2026-03-07T15:22:30.707616","MEAN_MOTION":15.3649767,"ECCENTRICITY":0.00061733,"INCLINATION":97.4428,"RA_OF_ASC_NODE":36.3089,"ARG_OF_PERICENTER":152.2749,"MEAN_ANOMALY":207.8825,"EPHEMERIS_TYPE":0,"CLASSIFICATION_TYPE":"U","NORAD_CAT_ID":64894,"ELEMENT_SET_NO":999,"REV_AT_EPOCH":6533,"BSTAR":0.0014304309,"MEAN_MOTION_DOT":0.0005117,"MEAN_MOTION_DDOT":0}]
